[
  {
    "OBJECT_NAME": "STARLINK-5127",
    "OBJECT_ID": "22125AY",
    "EPOCH": "2025-11-11T03:35:56.683104",
    "MEAN_MOTION": 15.08842216,
    "ECCENTRICITY": 0.0001102,
    "INCLINATION": 53.2176,
    "RA_OF_ASC_NODE": 15.8398,
    "ARG_OF_PERICENTER": 75.6794,
    "MEAN_ANOMALY": 284.4321,
    "EPHEMERIS_TYPE": 0,
    "CLASSIFICATION_TYPE": "U",
    "NORAD_CAT_ID": 54010,
    "ELEMENT_SET_NO": 999,
    "REV_AT_EPOCH": 17171,
    "BSTAR": 9.384900000000002e-05,
    "MEAN_MOTION_DOT": 1.206e-05,
    "MEAN_MOTION_DDOT": 0.0,
    "TLE_LINE1": "1 54010U 22125AY  25315.14996161  .00001206  00000+0  93849-4 0  9990",
    "TLE_LINE2": "2 54010  53.2176  15.8398 0001102  75.6794 284.4321 15.08842216171710",
    "COMMENT": "Grouped by shell and plane from TLE"
  },
  {
    "OBJECT_NAME": "STARLINK-5124",
    "OBJECT_ID": "22125AZ",
    "EPOCH": "2025-11-11T04:55:28.769376",
    "MEAN_MOTION": 15.08876787,
    "ECCENTRICITY": 0.0001473,
    "INCLINATION": 53.2188,
    "RA_OF_ASC_NODE": 16.1672,
    "ARG_OF_PERICENTER": 89.5282,
    "MEAN_ANOMALY": 270.5879,
    "EPHEMERIS_TYPE": 0,
    "CLASSIFICATION_TYPE": "U",
    "NORAD_CAT_ID": 54011,
    "ELEMENT_SET_NO": 999,
    "REV_AT_EPOCH": 17171,
    "BSTAR": 0.00034715,
    "MEAN_MOTION_DOT": 5.247e-05,
    "MEAN_MOTION_DDOT": 0.0,
    "TLE_LINE1": "1 54011U 22125AZ  25315.20519409  .00005247  00000+0  34715-3 0  9999",
    "TLE_LINE2": "2 54011  53.2188  16.1672 0001473  89.5282 270.5879 15.08876787171714",
    "COMMENT": "Grouped by shell and plane from TLE"
  },
  {
    "OBJECT_NAME": "STARLINK-5126",
    "OBJECT_ID": "22125BA",
    "EPOCH": "2025-11-11T07:29:10.227552",
    "MEAN_MOTION": 15.08837076,
    "ECCENTRICITY": 0.00016,
    "INCLINATION": 53.2193,
    "RA_OF_ASC_NODE": 15.4147,
    "ARG_OF_PERICENTER": 91.703,
    "MEAN_ANOMALY": 268.4146,
    "EPHEMERIS_TYPE": 0,
    "CLASSIFICATION_TYPE": "U",
    "NORAD_CAT_ID": 54012,
    "ELEMENT_SET_NO": 999,
    "REV_AT_EPOCH": 17173,
    "BSTAR": 3.0438e-05,
    "MEAN_MOTION_DOT": 1.96e-06,
    "MEAN_MOTION_DDOT": 0.0,
    "TLE_LINE1": "1 54012U 22125BA  25315.31192393  .00000196  00000+0  30438-4 0  9998",
    "TLE_LINE2": "2 54012  53.2193  15.4147 0001600  91.7030 268.4146 15.08837076171731",
    "COMMENT": "Grouped by shell and plane from TLE"
  },
  {
    "OBJECT_NAME": "STARLINK-5098",
    "OBJECT_ID": "22125BB",
    "EPOCH": "2025-11-11T04:29:01.029408",
    "MEAN_MOTION": 15.08831279,
    "ECCENTRICITY": 7.78e-05,
    "INCLINATION": 53.2167,
    "RA_OF_ASC_NODE": 16.0536,
    "ARG_OF_PERICENTER": 85.0423,
    "MEAN_ANOMALY": 275.0658,
    "EPHEMERIS_TYPE": 0,
    "CLASSIFICATION_TYPE": "U",
    "NORAD_CAT_ID": 54013,
    "ELEMENT_SET_NO": 999,
    "REV_AT_EPOCH": 17171,
    "BSTAR": 0.0,
    "MEAN_MOTION_DOT": -4.48e-06,
    "MEAN_MOTION_DDOT": 0.0,
    "TLE_LINE1": "1 54013U 22125BB  25315.18681747 -.00000448  00000+0 -10069-4 0  9990",
    "TLE_LINE2": "2 54013  53.2167  16.0536 0000778  85.0423 275.0658 15.08831279171718",
    "COMMENT": "Grouped by shell and plane from TLE"
  },
  {
    "OBJECT_NAME": "STARLINK-5055",
    "OBJECT_ID": "22125BD",
    "EPOCH": "2025-11-11T07:34:28.513920",
    "MEAN_MOTION": 15.08847526,
    "ECCENTRICITY": 0.0001652,
    "INCLINATION": 53.218,
    "RA_OF_ASC_NODE": 15.4317,
    "ARG_OF_PERICENTER": 96.5316,
    "MEAN_ANOMALY": 263.5864,
    "EPHEMERIS_TYPE": 0,
    "CLASSIFICATION_TYPE": "U",
    "NORAD_CAT_ID": 54015,
    "ELEMENT_SET_NO": 999,
    "REV_AT_EPOCH": 17173,
    "BSTAR": 0.00024989,
    "MEAN_MOTION_DOT": 3.692e-05,
    "MEAN_MOTION_DDOT": 0.0,
    "TLE_LINE1": "1 54015U 22125BD  25315.31560780  .00003692  00000+0  24989-3 0  9997",
    "TLE_LINE2": "2 54015  53.2180  15.4317 0001652  96.5316 263.5864 15.08847526171730",
    "COMMENT": "Grouped by shell and plane from TLE"
  },
  {
    "OBJECT_NAME": "STARLINK-6121",
    "OBJECT_ID": "23046AP",
    "EPOCH": "2025-11-11T06:00:09.115200",
    "MEAN_MOTION": 15.02536146,
    "ECCENTRICITY": 0.000123,
    "INCLINATION": 43.0034,
    "RA_OF_ASC_NODE": 17.8099,
    "ARG_OF_PERICENTER": 268.7075,
    "MEAN_ANOMALY": 91.3626,
    "EPHEMERIS_TYPE": 0,
    "CLASSIFICATION_TYPE": "U",
    "NORAD_CAT_ID": 56129,
    "ELEMENT_SET_NO": 999,
    "REV_AT_EPOCH": 14499,
    "BSTAR": 2.1569e-05,
    "MEAN_MOTION_DOT": 8.8e-07,
    "MEAN_MOTION_DDOT": 0.0,
    "TLE_LINE1": "1 56129U 23046AP  25315.25010550  .00000088  00000+0  21569-4 0  9994",
    "TLE_LINE2": "2 56129  43.0034  17.8099 0001230 268.7075  91.3626 15.02536146144991",
    "COMMENT": "Grouped by shell and plane from TLE"
  },
  {
    "OBJECT_NAME": "STARLINK-5536",
    "OBJECT_ID": "23088Q",
    "EPOCH": "2025-11-11T03:57:16.009632",
    "MEAN_MOTION": 15.02618338,
    "ECCENTRICITY": 0.0001526,
    "INCLINATION": 43.0056,
    "RA_OF_ASC_NODE": 18.2106,
    "ARG_OF_PERICENTER": 291.1326,
    "MEAN_ANOMALY": 68.9353,
    "EPHEMERIS_TYPE": 0,
    "CLASSIFICATION_TYPE": "U",
    "NORAD_CAT_ID": 57062,
    "ELEMENT_SET_NO": 999,
    "REV_AT_EPOCH": 13269,
    "BSTAR": 0.0,
    "MEAN_MOTION_DOT": -0.00018704,
    "MEAN_MOTION_DDOT": 0.0,
    "TLE_LINE1": "1 57062U 23088Q   25315.16476863 -.00018704  00000+0 -13701-2 0  9993",
    "TLE_LINE2": "2 57062  43.0056  18.2106 0001526 291.1326  68.9353 15.02618338132698",
    "COMMENT": "Grouped by shell and plane from TLE"
  },
  {
    "OBJECT_NAME": "STARLINK-5821",
    "OBJECT_ID": "23088X",
    "EPOCH": "2025-11-11T05:02:49.375680",
    "MEAN_MOTION": 15.0253444,
    "ECCENTRICITY": 0.0001184,
    "INCLINATION": 43.0039,
    "RA_OF_ASC_NODE": 18.5663,
    "ARG_OF_PERICENTER": 272.3335,
    "MEAN_ANOMALY": 87.7372,
    "EPHEMERIS_TYPE": 0,
    "CLASSIFICATION_TYPE": "U",
    "NORAD_CAT_ID": 57069,
    "ELEMENT_SET_NO": 999,
    "REV_AT_EPOCH": 13252,
    "BSTAR": 2.6440000000000004e-05,
    "MEAN_MOTION_DOT": 1.54e-06,
    "MEAN_MOTION_DDOT": 0.0,
    "TLE_LINE1": "1 57069U 23088X   25315.21029370  .00000154  00000+0  26440-4 0  9997",
    "TLE_LINE2": "2 57069  43.0039  18.5663 0001184 272.3335  87.7372 15.02534440132521",
    "COMMENT": "Grouped by shell and plane from TLE"
  },
  {
    "OBJECT_NAME": "STARLINK-5828",
    "OBJECT_ID": "23088Y",
    "EPOCH": "2025-11-11T03:52:40.044576",
    "MEAN_MOTION": 15.02536421,
    "ECCENTRICITY": 0.0001071,
    "INCLINATION": 43.0047,
    "RA_OF_ASC_NODE": 19.062,
    "ARG_OF_PERICENTER": 262.4771,
    "MEAN_ANOMALY": 97.595,
    "EPHEMERIS_TYPE": 0,
    "CLASSIFICATION_TYPE": "U",
    "NORAD_CAT_ID": 57070,
    "ELEMENT_SET_NO": 999,
    "REV_AT_EPOCH": 13268,
    "BSTAR": 0.00011653,
    "MEAN_MOTION_DOT": 1.371e-05,
    "MEAN_MOTION_DDOT": 0.0,
    "TLE_LINE1": "1 57070U 23088Y   25315.16157459  .00001371  00000+0  11653-3 0  9994",
    "TLE_LINE2": "2 57070  43.0047  19.0620 0001071 262.4771  97.5950 15.02536421132689",
    "COMMENT": "Grouped by shell and plane from TLE"
  },
  {
    "OBJECT_NAME": "STARLINK-5834",
    "OBJECT_ID": "23088Z",
    "EPOCH": "2025-11-11T03:38:16.821312",
    "MEAN_MOTION": 15.02541941,
    "ECCENTRICITY": 0.0001266,
    "INCLINATION": 43.004,
    "RA_OF_ASC_NODE": 18.9881,
    "ARG_OF_PERICENTER": 268.5779,
    "MEAN_ANOMALY": 91.4918,
    "EPHEMERIS_TYPE": 0,
    "CLASSIFICATION_TYPE": "U",
    "NORAD_CAT_ID": 57071,
    "ELEMENT_SET_NO": 999,
    "REV_AT_EPOCH": 13251,
    "BSTAR": 9.121300000000001e-05,
    "MEAN_MOTION_DOT": 1.029e-05,
    "MEAN_MOTION_DDOT": 0.0,
    "TLE_LINE1": "1 57071U 23088Z   25315.15158358  .00001029  00000+0  91213-4 0  9994",
    "TLE_LINE2": "2 57071  43.0040  18.9881 0001266 268.5779  91.4918 15.02541941132513",
    "COMMENT": "Grouped by shell and plane from TLE"
  },
  {
    "OBJECT_NAME": "STARLINK-5843",
    "OBJECT_ID": "23088AA",
    "EPOCH": "2025-11-11T05:22:00.009408",
    "MEAN_MOTION": 15.02540794,
    "ECCENTRICITY": 0.0001327,
    "INCLINATION": 43.0056,
    "RA_OF_ASC_NODE": 18.672,
    "ARG_OF_PERICENTER": 265.0924,
    "MEAN_ANOMALY": 94.9767,
    "EPHEMERIS_TYPE": 0,
    "CLASSIFICATION_TYPE": "U",
    "NORAD_CAT_ID": 57072,
    "ELEMENT_SET_NO": 999,
    "REV_AT_EPOCH": 13171,
    "BSTAR": 9.6356e-05,
    "MEAN_MOTION_DOT": 1.098e-05,
    "MEAN_MOTION_DDOT": 0.0,
    "TLE_LINE1": "1 57072U 23088AA  25315.22361122  .00001098  00000+0  96356-4 0  9997",
    "TLE_LINE2": "2 57072  43.0056  18.6720 0001327 265.0924  94.9767 15.02540794131718",
    "COMMENT": "Grouped by shell and plane from TLE"
  },
  {
    "OBJECT_NAME": "STARLINK-5838",
    "OBJECT_ID": "23088AB",
    "EPOCH": "2025-11-11T03:51:04.429152",
    "MEAN_MOTION": 15.02547713,
    "ECCENTRICITY": 0.0001493,
    "INCLINATION": 43.0078,
    "RA_OF_ASC_NODE": 19.0578,
    "ARG_OF_PERICENTER": 266.8133,
    "MEAN_ANOMALY": 93.2539,
    "EPHEMERIS_TYPE": 0,
    "CLASSIFICATION_TYPE": "U",
    "NORAD_CAT_ID": 57073,
    "ELEMENT_SET_NO": 999,
    "REV_AT_EPOCH": 13170,
    "BSTAR": 0.0,
    "MEAN_MOTION_DOT": -5.63e-06,
    "MEAN_MOTION_DDOT": 0.0,
    "TLE_LINE1": "1 57073U 23088AB  25315.16046793 -.00000563  00000+0 -26600-4 0  9998",
    "TLE_LINE2": "2 57073  43.0078  19.0578 0001493 266.8133  93.2539 15.02547713131700",
    "COMMENT": "Grouped by shell and plane from TLE"
  },
  {
    "OBJECT_NAME": "STARLINK-6155",
    "OBJECT_ID": "23088AE",
    "EPOCH": "2025-11-11T05:18:48.163392",
    "MEAN_MOTION": 15.02541471,
    "ECCENTRICITY": 0.000134,
    "INCLINATION": 43.0052,
    "RA_OF_ASC_NODE": 18.6506,
    "ARG_OF_PERICENTER": 264.2069,
    "MEAN_ANOMALY": 95.8621,
    "EPHEMERIS_TYPE": 0,
    "CLASSIFICATION_TYPE": "U",
    "NORAD_CAT_ID": 57076,
    "ELEMENT_SET_NO": 999,
    "REV_AT_EPOCH": 13252,
    "BSTAR": 0.00010333,
    "MEAN_MOTION_DOT": 1.193e-05,
    "MEAN_MOTION_DDOT": 0.0,
    "TLE_LINE1": "1 57076U 23088AE  25315.22139078  .00001193  00000+0  10333-3 0  9990",
    "TLE_LINE2": "2 57076  43.0052  18.6506 0001340 264.2069  95.8621 15.02541471132528",
    "COMMENT": "Grouped by shell and plane from TLE"
  }
]